NIMIQ 4                 
1 33373U 08044A   26167.17959307  .00000000  00000+0  00000+0 0  9996
2 33373   0.0322  42.3794 0002095  37.8585 166.9020  1.00268011 64978
GALAXY 19 (G-19)        
1 33376U 08045A   26167.20878065 -.00000139  00000+0  00000+0 0  9999
2 33376   0.0387 264.3579 0002428 183.6423 154.6477  1.00271236 64894
ASTRA 1M                
1 33436U 08057A   26167.11832373  .00000120  00000+0  00000+0 0  9990
2 33436   0.2941  82.4376 0004654  24.1649 219.7454  1.00271117 45722
EUTELSAT HOTBIRD 13C    
1 33459U 08065A   26167.13320198 -.00000285  00000+0  00000+0 0  9996
2 33459   2.9479  79.2040 0003280   5.0896 177.7734  1.00271195 47339
EXPRESS-AM44            
1 33595U 09007A   26167.11234369 -.00000092  00000+0  00000+0 0  9992
2 33595   3.4601  78.4029 0003822 359.5131 215.9070  1.00271013 52278
NSS-9                   
1 33749U 09008A   26166.79431052  .00000072  00000+0  00000+0 0  9992
2 33749   1.2585  82.6664 0001935 342.8032 307.6278  1.00269449 63503
TELSTAR 11N             
1 34111U 09009A   26166.82195731 -.00000250  00000+0  00000+0 0  9991
2 34111   0.0170  52.6327 0002150  24.9559  84.8541  1.00270763 46238
WGS F2 (USA 204)        
1 34713U 09017A   26166.48433757  .00000071  00000+0  00000+0 0  9993
2 34713   0.0169 350.7003 0000468 286.6242 218.3135  1.00269870 45603
SES-7 (PROTOSTAR 2)     
1 34941U 09027A   26166.28050799 -.00000341  00000+0  00000+0 0  9997
2 34941   0.0581  76.3170 0000521 247.0108 149.4859  1.00270418 62619
MEASAT-3A               
1 35362U 09032A   26167.02405919 -.00000110  00000+0  00000+0 0  9996
2 35362   0.0224 344.6283 0002811  94.6318 353.7075  1.00271498  8024
GOES 14                 
1 35491U 09033A   26166.92887412 -.00000287  00000+0  00000+0 0  9995
2 35491   1.6871  83.0561 0001713  11.0040 287.0966  1.00111152  6576
FM-5                    
1 35493U 09034A   26165.81425551 -.00000194  00000+0  00000+0 0  9994
2 35493   0.0205 292.4193 0001018  18.8658 158.8044  1.00269724 46628
TERRESTAR-1             
1 35496U 09035A   26166.66481149 -.00000058  00000+0  00000+0 0  9996
2 35496   5.1823  48.7993 0002771  27.2240 316.2400  1.00270035 62116
ASIASAT 5               
1 35696U 09042A   26167.07525223  .00000000  00000+0  00000+0 0  9990
2 35696   0.0244  33.6583 0001582  51.3185 307.0142  1.00267647 61690
JCSAT-12 (JCSAT-RA)     
1 35755U 09044A   26166.99809397 -.00000327  00000+0  00000+0 0  9998
2 35755   0.0105 332.2260 0000462 344.1334  79.2718  1.00271584 61598
OPTUS D3                
1 35756U 09044B   26166.78902383 -.00000144  00000+0  00000+0 0  9992
2 35756   0.8713 269.0481 0002732 177.2979 257.9114  1.00271355 61553
NIMIQ 5                 
1 35873U 09050A   26167.19767116 -.00000257  00000+0  00000+0 0  9993
2 35873   0.0148 313.6905 0002612 127.2975 181.9507  1.00270354 61338
AMAZONAS 2              
1 35942U 09054A   26167.19767116 -.00000260  00000+0  00000+0 0  9998
2 35942   1.8134  83.0628 0003161 358.0492 182.5096  1.00268895 61176
COMSATBW-1              
1 35943U 09054B   26167.12699044  .00000024  00000+0  00000+0 0  9993
2 35943   0.0793  78.0862 0002744  13.0733 281.9838  1.00272927 61297
NSS-12                  
1 36032U 09058A   26167.12577708  .00000071  00000+0  00000+0 0  9991
2 36032   0.0430  49.6084 0004507   1.6981 315.3817  1.00273736 60907
THOR 6                  
1 36033U 09058B   26167.11433705 -.00000010  00000+0  00000+0 0  9993
2 36033   0.0157  85.7993 0001542 353.7183 225.1915  1.00270783 60990
INTELSAT 14 (IS-14)     
1 36097U 09064A   26167.10556831 -.00000273  00000+0  00000+0 0  9996
2 36097   0.0204 295.7946 0002173 142.2349 179.3622  1.00270453 60595
EUTELSAT 36B            
1 36101U 09065A   26167.12447708  .00000112  00000+0  00000+0 0  9998
2 36101   0.4891  81.0886 0005774   2.1047 276.5183  1.00273354 60691
INTELSAT 15 (IS-15)     
1 36106U 09067A   26167.06009698 -.00000185  00000+0  00000+0 0  9991
2 36106   0.0149 305.8085 0002018 142.0585 283.2481  1.00270437 41217
WGS F3 (USA 211)        
1 36108U 09068A   26166.51844009  .00000067  00000+0  00000+0 0  9994
2 36108   0.3277  85.8019 0000089 198.8023  35.8414  1.00270178 46571
DIRECTV 12              
1 36131U 09075A   26166.45252497 -.00000101  00000+0  00000+0 0  9995
2 36131   0.0233 154.0951 0000337 245.9985 283.8318  1.00272221 46532
BEIDOU-2 G1             
1 36287U 10001A   26166.92852747 -.00000282  00000+0  00000+0 0  9994
2 36287   4.2899  60.4073 0002255 296.5945  21.9487  1.00270737 60154
SDO                     
1 36395U 10005A   26167.20324522 -.00000097  00000+0  00000+0 0  9999
2 36395  34.6501  86.3565 0001763  46.4520 102.7529  1.00269936 60051
INTELSAT 16 (IS-16)     
1 36397U 10006A   26167.22625446 -.00000245  00000+0  00000+0 0  9998
2 36397   0.0172 309.0556 0001941 156.6790 164.0058  1.00269256 59646
EWS-G2 (GOES 15)        
1 36411U 10008A   26167.17525350  .00000016  00000+0  00000+0 0  9999
2 36411   1.2753  82.8735 0005413  42.3765 266.0013  1.00275834 59628
ECHOSTAR 14             
1 36499U 10010A   26167.17336506  .00000000  00000+0  00000+0 0  9994
2 36499   0.0436  83.7803 0002327  19.7736 104.4256  1.00272492 46540
SES-1                   
1 36516U 10016A   26167.16815352 -.00000115  00000+0  00000+0 0  9998
2 36516   0.0133 333.6366 0002492 110.2837 140.0576  1.00271112 59023
