OBJECT_NAME,OBJECT_ID,EPOCH,MEAN_MOTION,ECCENTRICITY,INCLINATION,RA_OF_ASC_NODE,ARG_OF_PERICENTER,MEAN_ANOMALY,EPHEMERIS_TYPE,CLASSIFICATION_TYPE,NORAD_CAT_ID,ELEMENT_SET_NO,REV_AT_EPOCH,BSTAR,MEAN_MOTION_DOT,MEAN_MOTION_DDOT
NIMIQ 4,2008-044A,2026-06-16T04:18:36.841248,1.00268011,.0002095,0.0322,42.3794,37.8585,166.9020,0,U,33373,999,6497,0,0,0
GALAXY 19 (G-19),2008-045A,2026-06-16T05:00:38.648160,1.00271236,.0002428,0.0387,264.3579,183.6423,154.6477,0,U,33376,999,6489,0,-.139E-5,0
ASTRA 1M,2008-057A,2026-06-16T02:50:23.170272,1.00271117,.0004654,0.2941,82.4376,24.1649,219.7454,0,U,33436,999,4572,0,.12E-5,0
EUTELSAT HOTBIRD 13C,2008-065A,2026-06-16T03:11:48.651072,1.00271195,.000328,2.9479,79.2040,5.0896,177.7734,0,U,33459,999,4733,0,-.285E-5,0
EXPRESS-AM44,2009-007A,2026-06-16T02:41:46.494816,1.00271013,.0003822,3.4601,78.4029,359.5131,215.9070,0,U,33595,999,5227,0,-.92E-6,0
NSS-9,2009-008A,2026-06-15T19:03:48.428928,1.00269449,.0001935,1.2585,82.6664,342.8032,307.6278,0,U,33749,999,6350,0,.72E-6,0
TELSTAR 11N,2009-009A,2026-06-15T19:43:37.111584,1.00270763,.00021508,0.0170,52.6327,24.9559,84.8541,0,U,34111,999,4623,0,-.25E-5,0
WGS F2 (USA 204),2009-017A,2026-06-15T11:37:26.766048,1.00269870,.00004684,0.0169,350.7003,286.6242,218.3135,0,U,34713,999,4560,0,.71E-6,0
SES-7 (PROTOSTAR 2),2009-027A,2026-06-15T06:43:55.890336,1.00270418,.0000521,0.0581,76.3170,247.0108,149.4859,0,U,34941,999,6261,0,-.341E-5,0
MEASAT-3A,2009-032A,2026-06-16T00:34:38.714016,1.00271498,.0002811,0.0224,344.6283,94.6318,353.7075,0,U,35362,999,802,0,-.11E-5,0
GOES 14,2009-033A,2026-06-15T22:17:34.723968,1.00111152,.0001713,1.6871,83.0561,11.0040,287.0966,0,U,35491,999,657,0,-.287E-5,0
FM-5,2009-034A,2026-06-14T19:32:31.676064,1.00269724,.00010188,0.0205,292.4193,18.8658,158.8044,0,U,35493,999,4662,0,-.194E-5,0
TERRESTAR-1,2009-035A,2026-06-15T15:57:19.712736,1.00270035,.00027713,5.1823,48.7993,27.2240,316.2400,0,U,35496,999,6211,0,-.58E-6,0
ASIASAT 5,2009-042A,2026-06-16T01:48:21.792672,1.00267647,.0001582,0.0244,33.6583,51.3185,307.0142,0,U,35696,999,6169,0,0,0
JCSAT-12 (JCSAT-RA),2009-044A,2026-06-15T23:57:15.319008,1.00271584,.0000462,0.0105,332.2260,344.1334,79.2718,0,U,35755,999,6159,0,-.327E-5,0
OPTUS D3,2009-044B,2026-06-15T18:56:11.658912,1.00271355,.0002732,0.8713,269.0481,177.2979,257.9114,0,U,35756,999,6155,0,-.144E-5,0
NIMIQ 5,2009-050A,2026-06-16T04:44:38.788224,1.00270354,.0002612,0.0148,313.6905,127.2975,181.9507,0,U,35873,999,6133,0,-.257E-5,0
AMAZONAS 2,2009-054A,2026-06-16T04:44:38.788224,1.00268895,.0003161,1.8134,83.0628,358.0492,182.5096,0,U,35942,999,6117,0,-.26E-5,0
COMSATBW-1,2009-054B,2026-06-16T03:02:51.974016,1.00272927,.0002744,0.0793,78.0862,13.0733,281.9838,0,U,35943,999,6129,0,.24E-6,0
NSS-12,2009-058A,2026-06-16T03:01:07.139712,1.00273736,.0004507,0.0430,49.6084,1.6981,315.3817,0,U,36032,999,6090,0,.71E-6,0
THOR 6,2009-058B,2026-06-16T02:44:38.721120,1.00270783,.0001542,0.0157,85.7993,353.7183,225.1915,0,U,36033,999,6099,0,-.1E-6,0
INTELSAT 14 (IS-14),2009-064A,2026-06-16T02:32:01.101984,1.00270453,.0002173,0.0204,295.7946,142.2349,179.3622,0,U,36097,999,6059,0,-.273E-5,0
EUTELSAT 36B,2009-065A,2026-06-16T02:59:14.819712,1.00273354,.0005774,0.4891,81.0886,2.1047,276.5183,0,U,36101,999,6069,0,.112E-5,0
INTELSAT 15 (IS-15),2009-067A,2026-06-16T01:26:32.379072,1.00270437,.0002018,0.0149,305.8085,142.0585,283.2481,0,U,36106,999,4121,0,-.185E-5,0
WGS F3 (USA 211),2009-068A,2026-06-15T12:26:33.223776,1.00270178,.00000895,0.3277,85.8019,198.8023,35.8414,0,U,36108,999,4657,0,.67E-6,0
DIRECTV 12,2009-075A,2026-06-15T10:51:38.157408,1.00272221,.00003372,0.0233,154.0951,245.9985,283.8318,0,U,36131,999,4653,0,-.101E-5,0
BEIDOU-2 G1,2010-001A,2026-06-15T22:17:04.773408,1.00270737,.0002255,4.2899,60.4073,296.5945,21.9487,0,U,36287,999,6015,0,-.282E-5,0
SDO,2010-005A,2026-06-16T04:52:40.387008,1.00269936,.0001763,34.6501,86.3565,46.4520,102.7529,0,U,36395,999,6005,0,-.97E-6,0
INTELSAT 16 (IS-16),2010-006A,2026-06-16T05:25:48.385344,1.00269256,.0001941,0.0172,309.0556,156.6790,164.0058,0,U,36397,999,5964,0,-.245E-5,0
EWS-G2 (GOES 15),2010-008A,2026-06-16T04:12:21.902400,1.00275834,.0005413,1.2753,82.8735,42.3765,266.0013,0,U,36411,999,5962,0,.16E-6,0
ECHOSTAR 14,2010-010A,2026-06-16T04:09:38.741184,1.00272492,.0002327,0.0436,83.7803,19.7736,104.4256,0,U,36499,999,4654,0,0,0
SES-1,2010-016A,2026-06-16T04:02:08.464128,1.00271112,.0002492,0.0133,333.6366,110.2837,140.0576,0,U,36516,999,5902,0,-.115E-5,0
